GAOFEN-11 01            
1 43585U 18063A   26170.61819691  .00015982  00000+0  23660-3 0  9994
2 43585  97.1285 237.4911 0002808 347.0830  13.0352 15.55353211440721
ICESAT-2                
1 43613U 18070A   26170.57773600  .00007442  00000+0  26978-3 0  9995
2 43613  92.0083 291.6249 0006097 101.8168 258.3765 15.28317560432824
HYSIS                   
1 43719U 18096A   26170.64762598  .00000280  00000+0  45368-4 0  9990
2 43719  97.9835 237.3768 0001771  96.7186 263.4226 14.78619847407782
KAZSTSAT                
1 43783U 18099AB  26170.56593201  .00001394  00000+0  11694-3 0  9999
2 43783  97.4271 202.3860 0008594  63.5314 296.6791 14.99872903411666
SAUDISAT 5A             
1 43831U 18102A   26170.65324792  .00004361  00000+0  16174-3 0  9990
2 43831  97.3062 232.1869 0011158 121.5243 238.7088 15.28068929416055
SAUDISAT 5B             
1 43833U 18102C   26170.60620525  .00004218  00000+0  15529-3 0  9994
2 43833  97.3172 235.2148 0011831 123.8172 236.4196 15.28324278416166
GAOFEN-10R              
1 44622U 19066A   26170.65015756  .00000860  00000+0  11237-3 0  9991
2 44622  98.0503 124.2474 0006804 120.9643 239.2239 14.83065133362748
CARTOSAT-3              
1 44804U 19081A   26170.59424416  .00004842  00000+0  23212-3 0  9990
2 44804  97.4296 232.4236 0013406 140.5687 219.6526 15.19296523363833
GAOFEN-12 01            
1 44819U 19082A   26170.58046807  .00000288  00000+0  44309-4 0  9991
2 44819  97.8101 176.8968 0002207  67.5839 292.5607 14.80460227354443
CSG-1                   
1 44873U 19092A   26170.61675006  .00000285  00000+0  42355-4 0  9991
2 44873  97.8888 354.1840 0001451  90.0015 270.1365 14.82154821351837
NEMO-HD                 
1 46277U 20061F   26170.59153935  .00008552  00000+0  18551-3 0  9993
2 46277  97.1915 232.5203 0002170  79.5981 280.5512 15.44634764322358
SENTINEL-6A             
1 46984U 20086A   26170.58391345 -.00000051  00000+0  41848-4 0  9996
2 46984  66.0397 130.0742 0007924 270.1963  89.8144 12.80929975260634
CAS500-1                
1 47932U 21022A   26170.63022721  .00004710  00000+0  22081-3 0  9998
2 47932  97.3894  65.8341 0003300 288.0760  72.0116 15.20155481291136
GAOFEN-12 02            
1 48079U 21026A   26170.59178304  .00000258  00000+0  40851-4 0  9998
2 48079  97.9922 168.7626 0003849 212.0285 148.0694 14.80297622282115
PLEIADES NEO 3          
1 48268U 21034A   26170.34665170  .00000232  00000+0  36055-4 0  9995
2 48268  97.8930 245.0823 0001335  89.7246 270.4120 14.81675152277976
PLEIADES NEO 4          
1 49070U 21073E   26170.44793140  .00001237  00000+0  16369-3 0  9991
2 49070  97.8934 245.1785 0001397  88.3314 271.8059 14.81682225261708
LANDSAT 9               
1 49260U 21088A   26170.46263781  .00000249  00000+0  65420-4 0  9998
2 49260  98.2280 240.6125 0001334  85.0425 275.0926 14.57098444251338
CSG-2                   
1 51444U 22008A   26170.65048304 -.00000200  00000+0 -18550-4 0  9992
2 51444  97.8884 354.2117 0001440  87.7750 272.3628 14.82155587236951
GAOFEN-12 03            
1 52912U 22069A   26170.62212749  .00000047  00000+0  12874-4 0  9993
2 52912  97.8274  58.4307 0002142 101.9086 258.2366 14.80035817214971
SWOT                    
1 54754U 22173A   26170.56060811  .00000051  00000+0  35989-4 0  9996
2 54754  77.6105  32.1062 0000274  91.2103 268.9080 14.00169892179488
GAOFEN-12 04            
1 57654U 23123A   26170.63848200  .00000721  00000+0  10166-3 0  9991
2 57654  97.9121  88.6211 0001777  82.3586 277.7828 14.80232541152995
PARS 1                  
1 59065U 24039Q   26170.64501411  .00009637  00000+0  20057-3 0  9992
2 59065  97.4827 151.6421 0011540 104.3384 255.9147 15.45767414129029
RESURS-P 4              
1 59371U 24061A   26170.61434502  .00002442  00000+0  81143-4 0  9991
2 59371  97.2753 118.4708 0002352 124.1796 235.9669 15.32142618124135
LEGION 1                
1 59625U 24081A   26170.53615176  .00002638  00000+0  13809-3 0  9994
2 59625  97.5016 248.3682 0009291   9.7979 350.3434 15.16680029117898
LEGION 2                
1 59626U 24081B   26170.56616418  .00002990  00000+0  15607-3 0  9997
2 59626  97.5016 248.4952 0010557 335.0375  25.0346 15.16658780117901
ALOS-4 (DAICHI-4)       
1 60182U 24123A   26170.59330418  .00001069  00000+0  15007-3 0  9999
2 60182  97.9248 267.7335 0001623  97.0889 263.0507 14.79472225106232
LEGION 3                
1 60452U 24146A   26170.56896239  .00003401  00000+0  18723-3 0  9999
2 60452  45.0027  17.7811 0007929 183.9483 176.1334 15.16052785102384
LEGION 4                
1 60453U 24146B   26170.30850116  .00003734  00000+0  20405-3 0  9995
2 60453  45.0014 111.0883 0013586 319.7035  40.2836 15.16046207101194
SENTINEL-2C             
1 60989U 24157A   26170.48023720  .00000077  00000+0  46066-4 0  9992
2 60989  98.5692 245.2299 0000997  82.8566 277.2731 14.30818366 93311
IONOSFERA-M 1           
1 61735U 24199A   26170.58487312  .00000032  00000+0  34045-4 0  9995
2 61735  98.7170  43.7318 0002012 107.2173 252.9225 14.22754732128047
