OBJECT_NAME,OBJECT_ID,EPOCH,MEAN_MOTION,ECCENTRICITY,INCLINATION,RA_OF_ASC_NODE,ARG_OF_PERICENTER,MEAN_ANOMALY,EPHEMERIS_TYPE,CLASSIFICATION_TYPE,NORAD_CAT_ID,ELEMENT_SET_NO,REV_AT_EPOCH,BSTAR,MEAN_MOTION_DOT,MEAN_MOTION_DDOT
GAOFEN-11 01,2018-063A,2026-06-19T14:50:12.213024,15.55353211,.00028088,97.1285,237.4911,347.0830,13.0352,0,U,43585,999,44072,.23660219E-3,.15982E-3,0
ICESAT-2,2018-070A,2026-06-19T13:51:56.390400,15.28317560,.00060979,92.0083,291.6249,101.8168,258.3765,0,U,43613,999,43282,.26977872E-3,.7442E-4,0
HYSIS,2018-096A,2026-06-19T15:32:34.884672,14.78619847,.0001771,97.9835,237.3768,96.7186,263.4226,0,U,43719,999,40778,.4536767E-4,.28E-5,0
KAZSTSAT,2018-099AB,2026-06-19T13:34:56.525664,14.99872903,.00085945,97.4271,202.3860,63.5314,296.6791,0,U,43783,999,41166,.11693548E-3,.1394E-4,0
SAUDISAT 5A,2018-102A,2026-06-19T15:40:40.620288,15.28068929,.0011158,97.3062,232.1869,121.5243,238.7088,0,U,43831,999,41605,.16174225E-3,.4361E-4,0
SAUDISAT 5B,2018-102C,2026-06-19T14:32:56.133600,15.28324278,.00118318,97.3172,235.2148,123.8172,236.4196,0,U,43833,999,41616,.15528678E-3,.4218E-4,0
GAOFEN-10R,2019-066A,2026-06-19T15:36:13.613184,14.83065133,.0006804,98.0503,124.2474,120.9643,239.2239,0,U,44622,999,36274,.11236697E-3,.86E-5,0
CARTOSAT-3,2019-081A,2026-06-19T14:15:42.695424,15.19296523,.00134068,97.4296,232.4236,140.5687,219.6526,0,U,44804,999,36383,.23212439E-3,.4842E-4,0
GAOFEN-12 01,2019-082A,2026-06-19T13:55:52.441248,14.80460227,.00022073,97.8101,176.8968,67.5839,292.5607,0,U,44819,999,35444,.44308954E-4,.288E-5,0
CSG-1,2019-092A,2026-06-19T14:48:07.205184,14.82154821,.00014511,97.8888,354.1840,90.0015,270.1365,0,U,44873,999,35183,.42355337E-4,.285E-5,0
NEMO-HD,2020-061F,2026-06-19T14:11:48.999840,15.44634764,.00021702,97.1915,232.5203,79.5981,280.5512,0,U,46277,999,32235,.18551235E-3,.8552E-4,0
SENTINEL-6A,2020-086A,2026-06-19T14:00:50.122080,12.80929975,.00079244,66.0397,130.0742,270.1963,89.8144,0,U,46984,999,26063,.41848121E-4,-.51E-6,0
CAS500-1,2021-022A,2026-06-19T15:07:31.630944,15.20155481,.00033009,97.3894,65.8341,288.0760,72.0116,0,U,47932,999,29113,.22080837E-3,.471E-4,0
GAOFEN-12 02,2021-026A,2026-06-19T14:12:10.054656,14.80297622,.00038497,97.9922,168.7626,212.0285,148.0694,0,U,48079,999,28211,.40850544E-4,.258E-5,0
PLEIADES NEO 3,2021-034A,2026-06-19T08:19:10.706880,14.81675152,.00013358,97.8930,245.0823,89.7246,270.4120,0,U,48268,999,27797,.36054986E-4,.232E-5,0
PLEIADES NEO 4,2021-073E,2026-06-19T10:45:01.272960,14.81682225,.00013978,97.8934,245.1785,88.3314,271.8059,0,U,49070,999,26170,.1636946E-3,.1237E-4,0
LANDSAT 9,2021-088A,2026-06-19T11:06:11.906784,14.57098444,.00013346,98.2280,240.6125,85.0425,275.0926,0,U,49260,999,25133,.65419856E-4,.249E-5,0
CSG-2,2022-008A,2026-06-19T15:36:41.734656,14.82155587,.000144,97.8884,354.2117,87.7750,272.3628,0,U,51444,999,23695,-.18549869E-4,-.2E-5,0
GAOFEN-12 03,2022-069A,2026-06-19T14:55:51.815136,14.80035817,.0002142,97.8274,58.4307,101.9086,258.2366,0,U,52912,999,21497,.12874342E-4,.47E-6,0
SWOT,2022-173A,2026-06-19T13:27:16.540704,14.00169892,.00002748,77.6105,32.1062,91.2103,268.9080,0,U,54754,999,17948,.35989229E-4,.51E-6,0
GAOFEN-12 04,2023-123A,2026-06-19T15:19:24.844800,14.80232541,.00017774,97.9121,88.6211,82.3586,277.7828,0,U,57654,999,15299,.10165572E-3,.721E-5,0
PARS 1,2024-039Q,2026-06-19T15:28:49.219104,15.45767414,.00115407,97.4827,151.6421,104.3384,255.9147,0,U,59065,999,12902,.2005732E-3,.9637E-4,0
RESURS-P 4,2024-061A,2026-06-19T14:44:39.409728,15.32142618,.00023522,97.2753,118.4708,124.1796,235.9669,0,U,59371,999,12413,.81143431E-4,.2442E-4,0
LEGION 1,2024-081A,2026-06-19T12:52:03.512064,15.16680029,.00092911,97.5016,248.3682,9.7979,350.3434,0,U,59625,999,11789,.13808668E-3,.2638E-4,0
LEGION 2,2024-081B,2026-06-19T13:35:16.585152,15.16658780,.00105576,97.5016,248.4952,335.0375,25.0346,0,U,59626,999,11790,.156072E-3,.299E-4,0
ALOS-4 (DAICHI-4),2024-123A,2026-06-19T14:14:21.481152,14.79472225,.00016235,97.9248,267.7335,97.0889,263.0507,0,U,60182,999,10623,.15006817E-3,.1069E-4,0
LEGION 3,2024-146A,2026-06-19T13:39:18.350496,15.16052785,.00079294,45.0027,17.7811,183.9483,176.1334,0,U,60452,999,10238,.18723339E-3,.3401E-4,0
LEGION 4,2024-146B,2026-06-19T07:24:14.500224,15.16046207,.00135868,45.0014,111.0883,319.7035,40.2836,0,U,60453,999,10119,.2040465E-3,.3734E-4,0
SENTINEL-2C,2024-157A,2026-06-19T11:31:32.494080,14.30818366,.00009976,98.5692,245.2299,82.8566,277.2731,0,U,60989,999,9331,.46065988E-4,.77E-6,0
IONOSFERA-M 1,2024-199A,2026-06-19T14:02:13.037568,14.22754732,.00020122,98.7170,43.7318,107.2173,252.9225,0,U,61735,999,12804,.34044551E-4,.32E-6,0
